C/2021 L3 (Borisov),h,02/14.5876/2022,78.5665,344.9934,91.6290,1.004351,8.458537,2000,6.0,4.0
# From MPEC 2022-TA0
P/2021 N1 (ZTF),e,11.4904,301.1518,21.2382,2.978645,0.1917238,0.67602744,194.0069,03/14.0/2024,2000,g 19.0,4.0
# From MPEC 2024-D33
P/2021 N2 (Fuls),e,13.0612,221.7318,177.5350,6.942386,0.0538817,0.45257939,45.8407,03/14.0/2024,2000,g  9.5,4.0
# From MPEC 2022-YB4
C/2021 N3 (PANSTARRS),e,26.7474,337.5002,304.7230,146.5197,0.0005557,0.96098114,0.7244,03/14.0/2024,2000,g  8.5,4.0
# From MPEC 2022-A21
C/2021 O1 (Nishimura),e,27.5952,41.5946,74.3935,2724,0.0000069,0.99971215,0.0000,08/14.2378/2021,2000,g 10.5,4.0
# From MPEC 2022-L66
C/2021 O3 (PANSTARRS),h,04/21.0996/2022,56.7987,188.9696,299.9573,1.000044,0.286219,2000,10.5,4.0
# From MPEC 2022-CN4
C/2021 P1 (PANSTARRS),e,51.6380,359.7035,40.4753,2352,0.0000086,0.99813909,0.0000,06/02.5430/2022,2000,g 11.0,4.0
# From MPEC 2023-R20
C/2021 P2 (PANSTARRS),e,150.0630,32.0822,76.7166,4495,0.0000033,0.99887213,0.0000,01/22.9562/2023,2000,g  9.0,4.0
# From MPEC 2021-W31
P/2021 P3 (PANSTARRS),e,27.1611,358.2437,334.0846,4.412334,0.1063412,0.33873668,108.3936,03/14.0/2024,2000,g 14.0,4.0
# From MPEC 2023-A50
C/2021 P4 (ATLAS),e,56.3227,348.0705,175.7965,298.3545,0.0001913,0.99638124,0.0000,07/30.3377/2022,2000,g  9.5,4.0
# From MPEC 2023-E68
P/2021 PE20 (ATLAS),e,20.0023,99.6273,210.4694,3.745918,0.1359461,0.67002357,137.5017,03/14.0/2024,2000,g 17.0,4.0
# From MPEC 2023-FK0
C/2021 Q3 (ATLAS),e,77.7420,307.9151,114.1156,75.64968,0.0014979,0.93118809,1.1649,03/14.0/2024,2000,g  8.0,4.0
# From MPEC 2024-BE0
C/2021 Q4 (Fuls),h,06/11.3311/2023,71.4832,183.3286,147.0602,1.002947,7.565172,2000,6.0,4.0
# From MPEC 2022-C56
P/2021 Q5 (ATLAS),e,10.7393,239.7574,180.9304,3.286870,0.1653980,0.62465571,153.1829,03/14.0/2024,2000,g 15.0,4.0
# From MPEC 2023-XP6
C/2021 Q6 (PANSTARRS),h,03/25.0013/2024,161.8468,133.5362,141.0196,1.001026,8.707844,2000,6.0,4.0
# From MPEC 2023-FK0
C/2021 QM45 (PANSTARRS),e,22.8169,354.5958,72.8516,386.3077,0.0001298,0.99281777,0.0000,08/13.6200/2022,2000,g 11.0,4.0
# From MPEC 2022-X67
P/2021 R1 (PANSTARRS),e,5.5210,143.2565,220.2557,8.302680,0.0411980,0.41156674,33.8092,03/14.0/2024,2000,g 11.0,4.0
# From MPEC 2022-X67
C/2021 R2 (PANSTARRS),e,134.4834,16.3056,32.4959,3793,0.0000042,0.99807117,0.0000,12/27.6426/2021,2000,g  7.5,4.0
# From MPEC 2021-W31
P/2021 R3 (PANSTARRS),e,19.9321,304.1950,2.7072,3.771160,0.1345834,0.33101725,137.7537,03/14.0/2024,2000,g 16.0,4.0
# From MPEC 2021-W31
P/2021 R4 (Wierzchos),e,21.0271,321.2961,56.7080,5.624902,0.0738808,0.58585065,65.1609,03/14.0/2024,2000,g 16.0,4.0
# From MPEC 2024-D33
P/2021 R5 (Rankin),e,7.8545,219.9543,167.5264,4.795529,0.0938532,0.30651618,74.2663,03/14.0/2024,2000,g 12.0,4.0
# From MPEC 2021-W31
P/2021 R6 (Groeller),e,34.9171,176.1587,220.8099,6.284532,0.0625597,0.59340491,54.0395,03/14.0/2024,2000,g 14.5,4.0
# From MPEC 2022-X67
C/2021 R7 (PANSTARRS),e,158.8626,170.1666,140.3052,864.8389,0.0000388,0.99346534,0.0000,04/16.5729/2021,2000,g 10.5,4.0
# From MPEC 2021-Y10
P/2021 R8 (Sheppard),e,2.2032,167.0746,190.8305,3.018911,0.1879008,0.29309546,166.9741,03/14.0/2024,2000,g 18.5,4.0
# From MPEC 2023-J29
C/2021 S1 (ATLAS),h,03/01.4660/2022,52.0556,299.8718,148.2303,1.002516,6.120580,2000,7.0,4.0
# From MPEC 2024-EF7
C/2021 S3 (PANSTARRS),h,02/14.7117/2024,58.5330,215.6211,6.8551,1.000292,1.320216,2000,5.5,4.0
# From MPEC 2024-EF7
C/2021 S4 (Tsuchinshan),e,17.4784,5.4846,72.9151,162.9456,0.0004738,0.95894756,0.0337,03/14.0/2024,2000,g  6.5,4.0
# From MPEC 2022-OB6
C/2021 T1 (Lemmon),e,140.3607,56.8448,51.5566,1813,0.0000128,0.99831230,0.0000,10/14.3469/2021,2000,g 12.5,4.0
# From MPEC 2023-A50
C/2021 T2 (Fuls),h,06/08.0271/2022,117.5392,223.2340,263.5884,1.000493,1.246913,2000,12.0,4.0
# From MPEC 2024-EF7
C/2021 T4 (Lemmon),e,160.7778,257.8864,329.8190,25452,0.0000002,0.99994173,0.0000,07/31.5396/2023,2000,g  7.5,4.0
# From MPEC 2022-ED3
P/2021 U1 (Wierzchos),e,30.5519,246.7937,145.1549,8.532380,0.0395457,0.71301912,35.3873,03/14.0/2024,2000,g 14.5,4.0
# From MPEC 2022-L66
P/2021 U3 (Attard-Maury),e,69.9597,75.0979,335.2695,4.194788,0.1147200,0.54983241,99.9301,03/14.0/2024,2000,g 15.5,4.0
# From MPEC 2021-W31
C/2021 U4 (Leonard),e,152.8887,241.8084,237.3302,45.16791,0.0032468,0.96039428,2.6394,03/14.0/2024,2000,g 17.0,4.0
# From MPEC 2022-WQ9
C/2021 U5 (Catalina),e,39.0457,182.7372,321.4269,217.4435,0.0003074,0.98914292,0.0000,01/26.6535/2022,2000,g 13.0,4.0
# From MPEC 2022-CN4
C/2021 V1 (Rankin),e,71.4526,207.6702,195.1628,666.1795,0.0000573,0.99547311,0.0000,04/30.5618/2022,2000,g 13.0,4.0
# From MPEC 2024-D33
P/2021 V2 (Fuls),e,12.6947,232.2759,259.8516,9.073747,0.0360599,0.61464851,15.0534,03/14.0/2024,2000,g 10.0,4.0
# From MPEC 2024-DC6
C/2021 X1 (Maury-Attard),h,05/27.1333/2023,140.0980,10.5919,334.5624,1.000280,3.233369,2000,7.0,4.0
# From MPEC 2024-E08
C/2021 X2 (Bok),h,07/08.0983/2022,137.1611,228.8232,193.3124,1.000905,2.995608,2000,13.0,4.0
# From MPEC 2023-XP6
C/2021 Y1 (ATLAS),h,04/30.7483/2023,77.1931,244.7674,245.8317,1.001123,2.032530,2000,7.0,4.0
# From MPEC 2022-YN2
C/2022 A1 (Sarneczky),e,116.5326,285.5101,201.2394,351.2689,0.0001497,0.99642994,0.0000,01/31.0602/2022,2000,g 18.0,4.0
# From MPEC 2024-DC6
C/2022 A2 (PANSTARRS),h,02/18.2411/2023,108.1321,171.5833,88.3684,1.000285,1.735418,2000,9.5,4.0
# From MPEC 2024-EF7
C/2022 A3 (Lemmon-ATLAS),e,88.3410,325.4749,234.8510,867.5590,0.0000386,0.99573099,0.0000,09/28.8708/2023,2000,g  8.0,4.0
# From MPEC 2022-K19
P/2022 B1 (Wierzchos),e,10.9901,325.4359,148.8677,5.467076,0.0771030,0.65334622,57.6330,03/14.0/2024,2000,g 16.5,4.0
# From MPEC 2022-YB4
A/2022 B3,e,132.0538,286.1879,150.6966,720.0721,0.0000510,0.99486138,0.0000,01/17.2559/2022,2000,g 16.5,2.0
# From MPEC 2022-GA9
C/2022 B4 (Bok),e,20.0464,340.6073,152.9483,384.0720,0.0001309,0.99641372,0.0000,01/30.0343/2022,2000,g 21.0,4.0
# From MPEC 2023-J29
P/2022 BV9 (Lemmon),e,11.9299,337.3093,16.3093,4.363088,0.1081467,0.23430902,133.7949,03/14.0/2024,2000,g  9.5,4.0
# From MPEC 2023-J29
P/2022 C1 (PANSTARRS),e,4.7623,113.1196,9.3645,7.226987,0.0507304,0.44868638,43.6469,03/14.0/2024,2000,g 12.0,4.0
# From MPEC 2023-VM5
P/2022 C2 (PANSTARRS),e,9.9823,135.2605,89.2271,6.037322,0.0664412,0.44189148,38.9275,03/14.0/2024,2000,g 12.5,4.0
# From MPEC 2023-UR6
P/2022 C3 (PANSTARRS),e,12.8199,139.0420,93.8832,9.624920,0.0330072,0.54561891,20.5427,03/14.0/2024,2000,g 11.5,4.0
# From MPEC 2022-K19
P/2022 D1 (PANSTARRS),e,44.0778,47.9585,88.6605,7.403229,0.0489297,0.54752017,45.4476,03/14.0/2024,2000,g 12.5,4.0
# From MPEC 2022-K19
C/2022 D2 (Kowalski),e,22.6623,312.4183,177.7989,373.5664,0.0001365,0.99584142,0.0000,03/27.6873/2022,2000,g 17.0,4.0
# From MPEC 2024-EF7
C/2022 E2 (ATLAS),h,09/14.0910/2024,137.1252,125.3702,41.7115,1.000744,3.666391,2000,5.0,4.0
# From MPEC 2024-BE0
C/2022 E3 (ZTF),h,01/12.7337/2023,109.1683,302.5513,145.8108,1.000095,1.112412,2000,7.5,4.0
# From MPEC 2023-R20
C/2022 F1 (ATLAS),e,57.9819,350.6448,278.2915,4352,0.0000034,0.99862719,0.0000,08/05.2170/2022,2000,g  7.0,4.0
# From MPEC 2022-QD9
C/2022 F2 (NEOWISE),e,97.3141,58.7830,200.6226,24.00215,0.0083816,0.93382327,6.0496,03/14.0/2024,2000,g 14.5,4.0
# From MPEC 2023-J95
C/2022 H1 (PANSTARRS),e,49.8361,6.3375,246.1479,715.6158,0.0000515,0.98924457,0.0000,01/17.0688/2024,2000,g  6.0,4.0
# From MPEC 2022-VC5
C/2022 J1 (Maury-Attard),e,105.9513,280.7638,305.6623,47.61616,0.0029997,0.96632038,2.2615,03/14.0/2024,2000,g 14.9,4.0
# From MPEC 2023-M14
C/2022 J2 (Bok),e,149.1371,252.6464,133.0747,90.78193,0.0011395,0.97989231,0.0000,10/26.9864/2022,2000,g  9.0,4.0
# From MPEC 2024-DC6
C/2022 JK5 (PANSTARRS),e,16.8322,59.6450,247.2263,43.68909,0.0034131,0.93847302,1.0921,03/14.0/2024,2000,g 11.0,4.0
# From MPEC 2022-ST7
C/2022 K1 (Leonard),h,12/17.2709/2021,41.9642,136.3345,142.6389,1.001986,3.988974,2000,11.0,4.0
# From MPEC 2023-CD7
C/2022 L1 (Catalina),e,123.4517,300.0328,59.8383,503.9776,0.0000871,0.99684297,0.0000,09/28.1985/2022,2000,g 15.8,4.0
# From MPEC 2024-EF7
C/2022 L2 (ATLAS),h,03/12.2732/2024,129.3143,39.2412,199.9212,1.001384,2.692697,2000,6.5,4.0
# From MPEC 2024-DC6
P/2022 L3 (ATLAS),e,21.5429,29.8073,10.3609,6.502575,0.0594396,0.62771738,29.7794,03/14.0/2024,2000,g 16.5,4.0
# From MPEC 2022-N37
C/2022 L4 (PANSTARRS),e,141.2441,66.0639,125.3253,285.3742,0.0002044,0.98943934,0.0000,12/08.9161/2021,2000,g 14.0,4.0
# From MPEC 2023-FK0
C/2022 N1 (Attard-Maury),e,164.7347,301.8735,41.0508,36.93806,0.0043903,0.95991609,2.4188,03/14.0/2024,2000,g 16.9,4.0
# From MPEC 2023-XP6
C/2022 N2 (PANSTARRS),h,07/31.5832/2025,5.5026,319.7396,75.3619,1.003754,3.826145,2000,6.0,4.0
# From MPEC 2024-A43
C/2022 O1 (ATLAS),h,02/15.9217/2022,71.0413,49.9173,268.9299,1.003109,7.432386,2000,6.0,4.0
# From MPEC 2023-HD1
P/2022 O2 (PANSTARRS),e,9.4237,330.4907,48.6360,6.305598,0.0622465,0.72132279,26.8886,03/14.0/2024,2000,g 16.2,4.0
# From MPEC 2023-N01
C/2022 P1 (NEOWISE),e,154.6042,205.0823,249.9397,18.48081,0.0124057,0.91369718,5.8488,03/14.0/2024,2000,g 13.0,4.0
# From MPEC 2023-XP6
P/2022 P2 (ZTF),e,12.4399,291.2056,137.6750,4.488566,0.1036436,0.55818169,63.4350,03/14.0/2024,2000,g 12.5,4.0
# From MPEC 2023-HD1
C/2022 P3 (ZTF),e,59.5167,72.2204,0.1431,251.7665,0.0002467,0.98982136,0.0000,07/27.4447/2022,2000,g  9.0,4.0
# From MPEC 2023-R20
C/2022 Q2 (ATLAS),e,151.4817,352.9509,44.0715,32.84403,0.0052362,0.94994639,2.1331,03/14.0/2024,2000,g 13.0,4.0
# From MPEC 2024-EF7
C/2022 QE78 (ATLAS),h,09/10.2157/2025,36.5502,119.9410,0.3761,1.003899,5.480070,2000,5.0,4.0
# From MPEC 2023-W26
P/2022 R1 (PANSTARRS),e,7.3737,175.9428,222.0218,7.217709,0.0508282,0.50506792,8.0574,03/14.0/2024,2000,g 11.5,4.0
# From MPEC 2022-Y15
C/2022 R2 (ATLAS),e,52.9065,60.4117,78.3447,421.0535,0.0001141,0.99849941,0.0000,10/25.2774/2022,2000,g 17.0,4.0
# From MPEC 2024-EF7
C/2022 R3 (Leonard),h,03/05.5407/2023,43.0821,8.2433,72.8900,1.001144,5.129519,2000,9.0,4.0
# From MPEC 2022-X67
